GLOBALSTAR M057         
1 25943U 99058A   26004.51773694 -.00000115  00000+0 -19712-3 0  9999
2 25943  51.9974 136.8233 0003198  79.1199 281.0010 12.24832488191604
GLOBALSTAR M059         
1 25944U 99058B   26004.43946774 -.00000042  00000+0  54392-3 0  9993
2 25944  52.0044  22.7148 0000256  40.5395 109.8973 11.99989075598203
GLOBALSTAR M056         
1 25945U 99058C   26004.47085145 -.00000020  00000+0  79139-3 0  9996
2 25945  51.9989  19.4304 0000916 214.6136 312.0892 12.04782321186884
GLOBALSTAR M031         
1 25946U 99058D   25351.65166691 -.00000043  00000+0  48267-3 0  9990
2 25946  51.9983 309.4344 0000939 181.2254 351.7896 12.16044933186865
GLOBALSTAR M039         
1 25961U 99062A   26004.28166882 -.00000119  00000+0 -86008-4 0  9990
2 25961  51.9874  16.2139 0002794  75.5497 284.5679 12.62340059205617
GLOBALSTAR M034         
1 25962U 99062B   26004.33504182 -.00000054  00000+0  43491-3 0  9991
2 25962  51.9845 208.5170 0015382  63.1146 108.0156 11.79455355162129
GLOBALSTAR M029         
1 25963U 99062C   26004.21663156  .00000019  00000+0  13038-2 0  9999
2 25963  51.9808 271.1835 0002588 131.0077  36.8874 11.99907187193255
GLOBALSTAR M061         
1 25964U 99062D   26004.44949631 -.00000056  00000+0  39709-3 0  9996
2 25964  51.9815  34.9248 0005685 344.1813 155.8103 11.76777993144879
